0 PSLV DEB
1 27590U 01049NH  13283.02175019  .00021061  00000-0  88712-3 0   573
2 27590 097.9837 094.5396 0044172 327.0165 157.3202 15.22474780633851
0 PSLV DEB
1 27590U 01049NH  13285.43622909  .00018205  00000-0  76592-3 0   585
2 27590 097.9827 097.1020 0044046 318.6391 071.2456 15.22554395634217
0 PSLV DEB
1 27590U 01049NH  13287.03109503  .00017236  00000-0  72442-3 0   597
2 27590 097.9829 098.7967 0043872 312.9996 173.3133 15.22608838634465
0 PSLV DEB
1 27590U 01049NH  13287.74281490  .00025849  00000-0  10826-2 0   609
2 27590 097.9827 099.5527 0043850 310.4643 114.6452 15.22635178634573
0 PSLV DEB
1 27590U 01049NH  13289.71324252  .00028027  00000-0  11700-2 0   616
2 27590 097.9825 101.6452 0043961 303.8322 115.6892 15.22722287634876
0 PSLV DEB
1 27590U 01049NH  13290.43077302  .00027135  00000-0  11322-2 0   628
2 27590 097.9820 102.4075 0043791 301.2529 089.1966 15.22753378634987
0 PSLV DEB
1 27590U 01049NH  13291.03976926  .00020785  00000-0  86793-3 0   635
2 27590 097.9819 103.0546 0043786 299.0776 187.7689 15.22786076635076
0 PSLV DEB
1 27590U 01049NH  13293.01069189  .00022198  00000-0  92460-3 0   648
2 27590 097.9825 105.1490 0043626 292.0942 192.8772 15.22862852635375
0 PSLV DEB
1 27590U 01049NH  13294.70676190  .00029531  00000-0  12252-2 0   650
2 27590 097.9828 106.9508 0043603 286.3512 131.3691 15.22932878635634
0 PSLV DEB
1 27590U 01049NH  13295.42441284  .00029458  00000-0  12208-2 0   664
2 27590 097.9816 107.7129 0043791 284.0893 105.7630 15.22964033635742
